{
  "type": "FeatureCollection",
  "features": [
    {
      "type": "Feature",
      "properties": {
        "norad_id": 34420,
        "name": "COSMOS 2251 DEB",
        "group": "cosmos-2251-debris",
        "lat": 11.30295745130311,
        "lon": 124.64438573278318,
        "alt_km": 712.9031294046736,
        "timestamp": "2025-12-03T17:47:51.112479+00:00",
        "meta_object_name": "COSMOS 2251 DEB",
        "meta_object_id": "1993-036RM",
        "meta_epoch": "2025-12-03T11:27:53.775072",
        "meta_mean_motion": 14.68251665,
        "meta_eccentricity": 0.0106964,
        "meta_inclination": 74.0319,
        "meta_ra_of_asc_node": 121.8737,
        "meta_arg_of_pericenter": 245.1235,
        "meta_mean_anomaly": 171.6735,
        "meta_ephemeris_type": 0,
        "meta_classification_type": "U",
        "meta_norad_cat_id": 34420,
        "meta_element_set_no": 999,
        "meta_rev_at_epoch": 89634,
        "meta_bstar": 0.0003493,
        "meta_mean_motion_dot": 2.16e-05,
        "meta_mean_motion_ddot": 0,
        "tle_line1": "1 34420U 93036RM  25337.47770573  .00002160  00000+0  34930-3 0  9994",
        "tle_line2": "2 34420  74.0319 121.8737 0106964 245.1235 171.6735 14.68251665896340"
      },
      "geometry": {
        "type": "Point",
        "coordinates": [
          124.64438573278318,
          11.30295745130311
        ]
      }
    },
    {
      "type": "Feature",
      "properties": {
        "norad_id": 34425,
        "name": "COSMOS 2251 DEB",
        "group": "cosmos-2251-debris",
        "lat": -57.41780949419889,
        "lon": 45.122392510160495,
        "alt_km": 696.0302178777256,
        "timestamp": "2025-12-03T17:47:51.112490+00:00",
        "meta_object_name": "COSMOS 2251 DEB",
        "meta_object_id": "1993-036RS",
        "meta_epoch": "2025-12-03T08:13:28.483392",
        "meta_mean_motion": 14.62031768,
        "meta_eccentricity": 0.0025517,
        "meta_inclination": 74.0205,
        "meta_ra_of_asc_node": 72.5255,
        "meta_arg_of_pericenter": 200.9922,
        "meta_mean_anomaly": 159.02,
        "meta_ephemeris_type": 0,
        "meta_classification_type": "U",
        "meta_norad_cat_id": 34425,
        "meta_element_set_no": 999,
        "meta_rev_at_epoch": 88603,
        "meta_bstar": 0.00097853,
        "meta_mean_motion_dot": 4.906e-05,
        "meta_mean_motion_ddot": 0,
        "tle_line1": "1 34425U 93036RS  25337.34269078  .00004906  00000+0  97853-3 0  9991",
        "tle_line2": "2 34425  74.0205  72.5255 0025517 200.9922 159.0200 14.62031768886038"
      },
      "geometry": {
        "type": "Point",
        "coordinates": [
          45.122392510160495,
          -57.41780949419889
        ]
      }
    },
    {
      "type": "Feature",
      "properties": {
        "norad_id": 34429,
        "name": "COSMOS 2251 DEB",
        "group": "cosmos-2251-debris",
        "lat": 15.224021864271519,
        "lon": -167.99890588206924,
        "alt_km": 452.0249451503141,
        "timestamp": "2025-12-03T17:47:51.112500+00:00",
        "meta_object_name": "COSMOS 2251 DEB",
        "meta_object_id": "1993-036RW",
        "meta_epoch": "2025-12-03T01:12:03.144096",
        "meta_mean_motion": 15.36756361,
        "meta_eccentricity": 0.0005451,
        "meta_inclination": 73.9725,
        "meta_ra_of_asc_node": 189.0065,
        "meta_arg_of_pericenter": 40.4282,
        "meta_mean_anomaly": 111.1699,
        "meta_ephemeris_type": 0,
        "meta_classification_type": "U",
        "meta_norad_cat_id": 34429,
        "meta_element_set_no": 999,
        "meta_rev_at_epoch": 89299,
        "meta_bstar": 0.0051308649,
        "meta_mean_motion_dot": 0.00189054,
        "meta_mean_motion_ddot": 0,
        "tle_line1": "1 34429U 93036RW  25337.05003639  .00189054  00000+0  51309-2 0  9995",
        "tle_line2": "2 34429  73.9725 189.0065 0005451  40.4282 111.1699 15.36756361892999"
      },
      "geometry": {
        "type": "Point",
        "coordinates": [
          -167.99890588206924,
          15.224021864271519
        ]
      }
    },
    {
      "type": "Feature",
      "properties": {
        "norad_id": 34430,
        "name": "COSMOS 2251 DEB",
        "group": "cosmos-2251-debris",
        "lat": 73.92801604329041,
        "lon": 42.980290453506285,
        "alt_km": 728.4660916372959,
        "timestamp": "2025-12-03T17:47:51.112511+00:00",
        "meta_object_name": "COSMOS 2251 DEB",
        "meta_object_id": "1993-036RX",
        "meta_epoch": "2025-12-03T09:03:18.955008",
        "meta_mean_motion": 14.39583705,
        "meta_eccentricity": 0.0059897,
        "meta_inclination": 74.051,
        "meta_ra_of_asc_node": 320.6362,
        "meta_arg_of_pericenter": 32.6733,
        "meta_mean_anomaly": 327.8104,
        "meta_ephemeris_type": 0,
        "meta_classification_type": "U",
        "meta_norad_cat_id": 34430,
        "meta_element_set_no": 999,
        "meta_rev_at_epoch": 87820,
        "meta_bstar": 0.00066624,
        "meta_mean_motion_dot": 2.099e-05,
        "meta_mean_motion_ddot": 0,
        "tle_line1": "1 34430U 93036RX  25337.37730272  .00002099  00000+0  66624-3 0  9992",
        "tle_line2": "2 34430  74.0510 320.6362 0059897  32.6733 327.8104 14.39583705878202"
      },
      "geometry": {
        "type": "Point",
        "coordinates": [
          42.980290453506285,
          73.92801604329041
        ]
      }
    },
    {
      "type": "Feature",
      "properties": {
        "norad_id": 34431,
        "name": "COSMOS 2251 DEB",
        "group": "cosmos-2251-debris",
        "lat": -18.38968453849542,
        "lon": -173.96072244515221,
        "alt_km": 847.3415862624142,
        "timestamp": "2025-12-03T17:47:51.112522+00:00",
        "meta_object_name": "COSMOS 2251 DEB",
        "meta_object_id": "1993-036RY",
        "meta_epoch": "2025-12-03T01:04:59.473920",
        "meta_mean_motion": 14.28727352,
        "meta_eccentricity": 0.00687591,
        "meta_inclination": 74.074,
        "meta_ra_of_asc_node": 192.7465,
        "meta_arg_of_pericenter": 181.072,
        "meta_mean_anomaly": 179.0293,
        "meta_ephemeris_type": 0,
        "meta_classification_type": "U",
        "meta_norad_cat_id": 34431,
        "meta_element_set_no": 999,
        "meta_rev_at_epoch": 87004,
        "meta_bstar": 0.00069984948,
        "meta_mean_motion_dot": 1.781e-05,
        "meta_mean_motion_ddot": 0,
        "tle_line1": "1 34431U 93036RY  25337.04513280  .00001781  00000+0  69985-3 0  9995",
        "tle_line2": "2 34431  74.0740 192.7465 0068759 181.0720 179.0293 14.28727352870048"
      },
      "geometry": {
        "type": "Point",
        "coordinates": [
          -173.96072244515221,
          -18.38968453849542
        ]
      }
    },
    {
      "type": "Feature",
      "properties": {
        "norad_id": 34432,
        "name": "COSMOS 2251 DEB",
        "group": "cosmos-2251-debris",
        "lat": 70.10032595302063,
        "lon": -115.11119765112666,
        "alt_km": 898.6574305311551,
        "timestamp": "2025-12-03T17:47:51.112533+00:00",
        "meta_object_name": "COSMOS 2251 DEB",
        "meta_object_id": "1993-036RZ",
        "meta_epoch": "2025-12-03T02:28:17.071104",
        "meta_mean_motion": 14.02836729,
        "meta_eccentricity": 0.01831849,
        "meta_inclination": 73.8275,
        "meta_ra_of_asc_node": 119.3014,
        "meta_arg_of_pericenter": 203.436,
        "meta_mean_anomaly": 276.5797,
        "meta_ephemeris_type": 0,
        "meta_classification_type": "U",
        "meta_norad_cat_id": 34432,
        "meta_element_set_no": 999,
        "meta_rev_at_epoch": 85549,
        "meta_bstar": 0.0016054633,
        "meta_mean_motion_dot": 2.856e-05,
        "meta_mean_motion_ddot": 0,
        "tle_line1": "1 34432U 93036RZ  25337.10297536  .00002856  00000+0  16055-2 0  9999",
        "tle_line2": "2 34432  73.8275 119.3014 0183184 203.4360 276.5797 14.02836729855498"
      },
      "geometry": {
        "type": "Point",
        "coordinates": [
          -115.11119765112666,
          70.10032595302063
        ]
      }
    },
    {
      "type": "Feature",
      "properties": {
        "norad_id": 34433,
        "name": "COSMOS 2251 DEB",
        "group": "cosmos-2251-debris",
        "lat": 13.999656720648828,
        "lon": -13.224533180897184,
        "alt_km": 940.4362848202118,
        "timestamp": "2025-12-03T17:47:51.112544+00:00",
        "meta_object_name": "COSMOS 2251 DEB",
        "meta_object_id": "1993-036SA",
        "meta_epoch": "2025-12-03T00:00:45.111168",
        "meta_mean_motion": 14.12779901,
        "meta_eccentricity": 0.01517359,
        "meta_inclination": 74.0107,
        "meta_ra_of_asc_node": 172.1866,
        "meta_arg_of_pericenter": 312.4155,
        "meta_mean_anomaly": 46.4228,
        "meta_ephemeris_type": 0,
        "meta_classification_type": "U",
        "meta_norad_cat_id": 34433,
        "meta_element_set_no": 999,
        "meta_rev_at_epoch": 85812,
        "meta_bstar": 0.0017302028,
        "meta_mean_motion_dot": 3.559e-05,
        "meta_mean_motion_ddot": 0,
        "tle_line1": "1 34433U 93036SA  25337.00052212  .00003559  00000+0  17302-2 0  9996",
        "tle_line2": "2 34433  74.0107 172.1866 0151735 312.4155  46.4228 14.12779901858123"
      },
      "geometry": {
        "type": "Point",
        "coordinates": [
          -13.224533180897184,
          13.999656720648828
        ]
      }
    }
  ]
}